[{"OBJECT_NAME":"STARLINK-5269","OBJECT_ID":"2022-141E","EPOCH":"2026-03-09T06:40:36.283008","MEAN_MOTION":15.08835179,"ECCENTRICITY":0.00014233,"INCLINATION":53.2194,"RA_OF_ASC_NODE":16.0719,"ARG_OF_PERICENTER":103.8186,"MEAN_ANOMALY":256.2964,"EPHEMERIS_TYPE":0,"CLASSIFICATION_TYPE":"U","NORAD_CAT_ID":54161,"ELEMENT_SET_NO":999,"REV_AT_EPOCH":18565,"BSTAR":-3.9571199e-5,"MEAN_MOTION_DOT":-9.18e-6,"MEAN_MOTION_DDOT":0},{"OBJECT_NAME":"FENGYUN 1C DEB","OBJECT_ID":"1999-025BLC","EPOCH":"2026-03-08T16:01:16.538592","MEAN_MOTION":14.99951534,"ECCENTRICITY":0.01625238,"INCLINATION":98.6028,"RA_OF_ASC_NODE":151.5668,"ARG_OF_PERICENTER":148.1189,"MEAN_ANOMALY":212.9995,"EPHEMERIS_TYPE":0,"CLASSIFICATION_TYPE":"U","NORAD_CAT_ID":31222,"ELEMENT_SET_NO":999,"REV_AT_EPOCH":1270,"BSTAR":0.0010673359,"MEAN_MOTION_DOT":0.00017492,"MEAN_MOTION_DDOT":0}]
